start=new Date('2022-05-15T00:00:00.000Z').valueOf();
sats=[{"OBJECT_NAME":"STARLINK-2155","SEMIMAJOR_AXIS":"6925.373","ECCENTRICITY":"0.00013150","RA_OF_ASC_NODE":"273.6903","OBJECT_ID":"2021-041E","GP_ID":"203563752","MEAN_ANOMALY":"287.6403","BSTAR":"-0.00005803700000","SITE":"AFETR","CLASSIFICATION_TYPE":"U","MEAN_MOTION_DDOT":"0.0000000000000","COUNTRY_CODE":"US","ELEMENT_SET_NO":"999","APOAPSIS":"548.149","CENTER_NAME":"EARTH","RCS_SIZE":"LARGE","PERIAPSIS":"546.328","ARG_OF_PERICENTER":"72.4729","REV_AT_EPOCH":"5495","LAUNCH_DATE":"2021-05-15","MEAN_MOTION":"15.06391873","EPOCH":"2022-05-14T18:20:48.317568","TLE_LINE1":"1 48557U 21041E   22134.76444812 -.00001146  00000-0 -58037-4 0  9996","TIME_SYSTEM":"UTC","MEAN_ELEMENT_THEORY":"SGP4","TLE_LINE2":"2 48557  53.0532 273.6903 0001315  72.4729 287.6403 15.06391873 54956","EPHEMERIS_TYPE":"0","NORAD_CAT_ID":"48557","REF_FRAME":"TEME","INCLINATION":"53.0532","FILE":"3445938","MEAN_MOTION_DOT":"-0.00001146","OBJECT_TYPE":"PAYLOAD","PERIOD":"95.593","DECAY_DATE":null},{"ARG_OF_PERICENTER":"74.4663","PERIAPSIS":"546.368","RCS_SIZE":"LARGE","ELEMENT_SET_NO":"999","COUNTRY_CODE":"US","MEAN_MOTION_DDOT":"0.0000000000000","CENTER_NAME":"EARTH","APOAPSIS":"548.069","BSTAR":"-0.00004738900000","CLASSIFICATION_TYPE":"U","SITE":"AFETR","GP_ID":"203563472","MEAN_ANOMALY":"285.6461","OBJECT_ID":"2021-041F","RA_OF_ASC_NODE":"273.7017","OBJECT_NAME":"STARLINK-2166","ECCENTRICITY":"0.00012280","SEMIMAJOR_AXIS":"6925.353","PERIOD":"95.592","OBJECT_TYPE":"PAYLOAD","MEAN_MOTION_DOT":"-0.00000987","DECAY_DATE":null,"INCLINATION":"53.0546","FILE":"3445938","REF_FRAME":"TEME","EPHEMERIS_TYPE":"0","NORAD_CAT_ID":"48558","TIME_SYSTEM":"UTC","TLE_LINE2":"2 48558  53.0546 273.7017 0001228  74.4663 285.6461 15.06398407 54098","MEAN_ELEMENT_THEORY":"SGP4","TLE_LINE1":"1 48558U 21041F   22134.76075476 -.00000987  00000-0 -47389-4 0  9993","MEAN_MOTION":"15.06398407","EPOCH":"2022-05-14T18:15:29.211264","LAUNCH_DATE":"2021-05-15","REV_AT_EPOCH":"5409"},{"FILE":"3445495","INCLINATION":"53.0544","OBJECT_TYPE":"PAYLOAD","MEAN_MOTION_DOT":"-0.00000132","PERIOD":"95.592","DECAY_DATE":null,"EPHEMERIS_TYPE":"0","NORAD_CAT_ID":"48559","REF_FRAME":"TEME","TLE_LINE1":"1 48559U 21041G   22134.39858934 -.00000132  00000-0  10032-4 0  9997","TIME_SYSTEM":"UTC","MEAN_ELEMENT_THEORY":"SGP4","TLE_LINE2":"2 48559  53.0544 275.3156 0001414  65.3047 294.8089 15.06395211 54897","REV_AT_EPOCH":"5489","LAUNCH_DATE":"2021-05-15","MEAN_MOTION":"15.06395211","EPOCH":"2022-05-14T09:33:58.118976","RCS_SIZE":"LARGE","PERIAPSIS":"546.249","ARG_OF_PERICENTER":"65.3047","BSTAR":"0.00001003200000","SITE":"AFETR","CLASSIFICATION_TYPE":"U","MEAN_MOTION_DDOT":"0.0000000000000","COUNTRY_CODE":"US","ELEMENT_SET_NO":"999","APOAPSIS":"548.207","CENTER_NAME":"EARTH","OBJECT_ID":"2021-041G","GP_ID":"203528231","MEAN_ANOMALY":"294.8089","OBJECT_NAME":"STARLINK-2167","SEMIMAJOR_AXIS":"6925.363","ECCENTRICITY":"0.00014140","RA_OF_ASC_NODE":"275.3156"},{"DECAY_DATE":null,"OBJECT_TYPE":"PAYLOAD","PERIOD":"95.590","MEAN_MOTION_DOT":"-0.00060029","FILE":"3445938","INCLINATION":"53.0536","REF_FRAME":"TEME","EPHEMERIS_TYPE":"0","NORAD_CAT_ID":"48561","TLE_LINE2":"2 48561  53.0536 242.9994 0001432  78.1947 278.0566 15.06434512  1302","MEAN_ELEMENT_THEORY":"SGP4","TIME_SYSTEM":"UTC","TLE_LINE1":"1 48561U 21041J   22134.91667824 -.00060029  00000-0 -40414-2 0  9991","EPOCH":"2022-05-14T22:00:00.999936","MEAN_MOTION":"15.06434512","LAUNCH_DATE":"2021-05-15","REV_AT_EPOCH":"130","ARG_OF_PERICENTER":"78.1947","PERIAPSIS":"546.116","RCS_SIZE":"LARGE","CENTER_NAME":"EARTH","APOAPSIS":"548.099","ELEMENT_SET_NO":"999","MEAN_MOTION_DDOT":"0.0000000000000","COUNTRY_CODE":"US","CLASSIFICATION_TYPE":"U","SITE":"AFETR","BSTAR":"-0.00404140000000","MEAN_ANOMALY":"278.0566","GP_ID":"203562997","OBJECT_ID":"2021-041J","RA_OF_ASC_NODE":"242.9994","ECCENTRICITY":"0.00014320","SEMIMAJOR_AXIS":"6925.243","OBJECT_NAME":"STARLINK-2186"},{"PERIOD":"95.592","OBJECT_TYPE":"PAYLOAD","MEAN_MOTION_DOT":"-0.00001375","DECAY_DATE":null,"INCLINATION":"53.0546","FILE":"3445938","REF_FRAME":"TEME","EPHEMERIS_TYPE":"0","NORAD_CAT_ID":"48562","TIME_SYSTEM":"UTC","TLE_LINE2":"2 48562  53.0546 273.5014 0001560  87.4679 272.6488 15.06402385 54960","MEAN_ELEMENT_THEORY":"SGP4","TLE_LINE1":"1 48562U 21041K   22134.80498551 -.00001375  00000-0 -73419-4 0  9991","MEAN_MOTION":"15.06402385","EPOCH":"2022-05-14T19:19:10.748064","LAUNCH_DATE":"2021-05-15","REV_AT_EPOCH":"5496","ARG_OF_PERICENTER":"87.4679","PERIAPSIS":"546.126","RCS_SIZE":"LARGE","ELEMENT_SET_NO":"999","MEAN_MOTION_DDOT":"0.0000000000000","COUNTRY_CODE":"US","CENTER_NAME":"EARTH","APOAPSIS":"548.287","BSTAR":"-0.00007341900000","CLASSIFICATION_TYPE":"U","SITE":"AFETR","GP_ID":"203563253","MEAN_ANOMALY":"272.6488","OBJECT_ID":"2021-041K","RA_OF_ASC_NODE":"273.5014","OBJECT_NAME":"STARLINK-2187","ECCENTRICITY":"0.00015600","SEMIMAJOR_AXIS":"6925.341"},{"RCS_SIZE":"LARGE","PERIAPSIS":"546.205","ARG_OF_PERICENTER":"76.3707","SITE":"AFETR","CLASSIFICATION_TYPE":"U","BSTAR":"0.00003574700000","APOAPSIS":"548.220","CENTER_NAME":"EARTH","MEAN_MOTION_DDOT":"0.0000000000000","COUNTRY_CODE":"US","ELEMENT_SET_NO":"999","OBJECT_ID":"2021-041L","MEAN_ANOMALY":"283.7444","GP_ID":"203563972","SEMIMAJOR_AXIS":"6925.348","ECCENTRICITY":"0.00014550","OBJECT_NAME":"STARLINK-2188","RA_OF_ASC_NODE":"274.0215","FILE":"3445938","INCLINATION":"53.0542","DECAY_DATE":null,"PERIOD":"95.592","OBJECT_TYPE":"PAYLOAD","MEAN_MOTION_DOT":"0.00000251","EPHEMERIS_TYPE":"0","NORAD_CAT_ID":"48563","REF_FRAME":"TEME","TLE_LINE1":"1 48563U 21041L   22134.69072261  .00000251  00000-0  35747-4 0  9997","TLE_LINE2":"2 48563  53.0542 274.0215 0001455  76.3707 283.7444 15.06400269 54940","MEAN_ELEMENT_THEORY":"SGP4","TIME_SYSTEM":"UTC","REV_AT_EPOCH":"5494","LAUNCH_DATE":"2021-05-15","EPOCH":"2022-05-14T16:34:38.433504","MEAN_MOTION":"15.06400269"},{"OBJECT_ID":"2021-041M","GP_ID":"203562751","MEAN_ANOMALY":"285.4928","OBJECT_NAME":"STARLINK-2190","SEMIMAJOR_AXIS":"6925.353","ECCENTRICITY":"0.00012130","RA_OF_ASC_NODE":"274.6514","RCS_SIZE":"LARGE","PERIAPSIS":"546.378","ARG_OF_PERICENTER":"74.6195","BSTAR":"0.00001646200000","SITE":"AFETR","CLASSIFICATION_TYPE":"U","COUNTRY_CODE":"US","MEAN_MOTION_DDOT":"0.0000000000000","ELEMENT_SET_NO":"999","APOAPSIS":"548.058","CENTER_NAME":"EARTH","TLE_LINE1":"1 48564U 21041M   22134.55065844 -.00000036  00000-0  16462-4 0  9997","TIME_SYSTEM":"UTC","TLE_LINE2":"2 48564  53.0549 274.6514 0001213  74.6195 285.4928 15.06398519 54928","MEAN_ELEMENT_THEORY":"SGP4","REV_AT_EPOCH":"5492","LAUNCH_DATE":"2021-05-15","MEAN_MOTION":"15.06398519","EPOCH":"2022-05-14T13:12:56.889216","FILE":"3445938","INCLINATION":"53.0549","MEAN_MOTION_DOT":"-0.00000036","OBJECT_TYPE":"PAYLOAD","PERIOD":"95.592","DECAY_DATE":null,"EPHEMERIS_TYPE":"0","NORAD_CAT_ID":"48564","REF_FRAME":"TEME"},{"PERIAPSIS":"546.264","RCS_SIZE":"LARGE","ARG_OF_PERICENTER":"90.0074","BSTAR":"-0.00003201600000","CLASSIFICATION_TYPE":"U","SITE":"AFETR","ELEMENT_SET_NO":"999","MEAN_MOTION_DDOT":"0.0000000000000","COUNTRY_CODE":"US","CENTER_NAME":"EARTH","APOAPSIS":"548.181","OBJECT_ID":"2021-041N","GP_ID":"203563497","MEAN_ANOMALY":"270.1074","OBJECT_NAME":"STARLINK-2191","ECCENTRICITY":"0.00013840","SEMIMAJOR_AXIS":"6925.357","RA_OF_ASC_NODE":"273.4736","INCLINATION":"53.0550","FILE":"3445938","OBJECT_TYPE":"PAYLOAD","PERIOD":"95.592","MEAN_MOTION_DOT":"-0.00000758","DECAY_DATE":null,"NORAD_CAT_ID":"48565","EPHEMERIS_TYPE":"0","REF_FRAME":"TEME","TLE_LINE1":"1 48565U 21041N   22134.81235743 -.00000758  00000-0 -32016-4 0  9999","TIME_SYSTEM":"UTC","TLE_LINE2":"2 48565  53.0550 273.4736 0001384  90.0074 270.1074 15.06397098 54969","MEAN_ELEMENT_THEORY":"SGP4","LAUNCH_DATE":"2021-05-15","REV_AT_EPOCH":"5496","MEAN_MOTION":"15.06397098","EPOCH":"2022-05-14T19:29:47.681952"},{"REF_FRAME":"TEME","EPHEMERIS_TYPE":"0","NORAD_CAT_ID":"48566","PERIOD":"95.592","OBJECT_TYPE":"PAYLOAD","MEAN_MOTION_DOT":"0.00001512","DECAY_DATE":null,"FILE":"3445938","INCLINATION":"53.0549","MEAN_MOTION":"15.06408256","EPOCH":"2022-05-14T20:04:15.023136","LAUNCH_DATE":"2021-05-15","REV_AT_EPOCH":"5482","TIME_SYSTEM":"UTC","MEAN_ELEMENT_THEORY":"SGP4","TLE_LINE2":"2 48566  53.0549 283.3620 0001446  72.5701 287.5446 15.06408256 54820","TLE_LINE1":"1 48566U 21041P   22134.83628499  .00001512  00000-0  12037-3 0  9993","ELEMENT_SET_NO":"999","MEAN_MOTION_DDOT":"0.0000000000000","COUNTRY_CODE":"US","CENTER_NAME":"EARTH","APOAPSIS":"548.190","BSTAR":"0.00012037000000","CLASSIFICATION_TYPE":"U","SITE":"AFETR","ARG_OF_PERICENTER":"72.5701","PERIAPSIS":"546.187","RCS_SIZE":"MEDIUM","RA_OF_ASC_NODE":"283.3620","OBJECT_NAME":"STARLINK-2214","ECCENTRICITY":"0.00014460","SEMIMAJOR_AXIS":"6925.323","GP_ID":"203563753","MEAN_ANOMALY":"287.5446","OBJECT_ID":"2021-041P"},{"GP_ID":"203563473","MEAN_ANOMALY":"273.8025","OBJECT_ID":"2021-041Q","RA_OF_ASC_NODE":"283.3065","OBJECT_NAME":"STARLINK-2215","ECCENTRICITY":"0.00012360","SEMIMAJOR_AXIS":"6925.350","ARG_OF_PERICENTER":"86.3106","PERIAPSIS":"546.359","RCS_SIZE":"LARGE","ELEMENT_SET_NO":"999","COUNTRY_CODE":"US","MEAN_MOTION_DDOT":"0.0000000000000","CENTER_NAME":"EARTH","APOAPSIS":"548.071","BSTAR":"-0.00006267400000","CLASSIFICATION_TYPE":"U","SITE":"AFETR","TIME_SYSTEM":"UTC","TLE_LINE2":"2 48567  53.0569 283.3065 0001236  86.3106 273.8025 15.06399423 54821","MEAN_ELEMENT_THEORY":"SGP4","TLE_LINE1":"1 48567U 21041Q   22134.84829655 -.00001215  00000-0 -62674-4 0  9997","MEAN_MOTION":"15.06399423","EPOCH":"2022-05-14T20:21:32.821920","LAUNCH_DATE":"2021-05-15","REV_AT_EPOCH":"5482","PERIOD":"95.592","OBJECT_TYPE":"PAYLOAD","MEAN_MOTION_DOT":"-0.00001215","DECAY_DATE":null,"INCLINATION":"53.0569","FILE":"3445938","REF_FRAME":"TEME","NORAD_CAT_ID":"48567","EPHEMERIS_TYPE":"0"}];
